IRIDIUM 5               
1 24795U 97020D   25132.88259250  .00003720  00000+0  30849-3 0  9995
2 24795  86.3864 100.0106 0106559 264.9729  93.9330 14.94110012480199
IRIDIUM 4               
1 24796U 97020E   25133.20071529  .00000356  00000+0  11379-3 0  9993
2 24796  86.4004 188.4613 0002186  92.8191 267.3257 14.36821154467475
IRIDIUM 914             
1 24836U 97030A   25132.88478052  .00000428  00000+0  12746-3 0  9993
2 24836  86.3985 197.2942 0002125  51.6482 308.4908 14.40844740464141
IRIDIUM 16              
1 24841U 97030F   25132.79184828  .00000422  00000+0  13118-3 0  9992
2 24841  86.4073 220.1308 0003287 138.6371 221.5077 14.38689257461912
IRIDIUM 911             
1 24842U 97030G   25132.72551188  .00000585  00000+0  15330-3 0  9991
2 24842  86.4499 218.9660 0013175 207.4529 152.5979 14.47604380469958
IRIDIUM 17              
1 24870U 97034B   25132.82686747  .00000491  00000+0  15642-3 0  9999
2 24870  86.3958 249.6152 0003653 111.0098 249.1491 14.37799675458508
IRIDIUM 920             
1 24871U 97034C   25133.23812566  .00000453  00000+0  13324-3 0  9999
2 24871  86.4004 228.7490 0011327 186.0234 174.0831 14.41506221461805
