<?xml version="1.0" encoding="UTF-8"?>
<ndm xmlns:xsi="http://www.w3.org/2001/XMLSchema-instance" xsi:noNamespaceSchemaLocation="https://sanaregistry.org/r/ndmxml_unqualified/ndmxml-2.0.0-master-2.0.xsd">
<omm id="CCSDS_OMM_VERS" version="2.0">
<header><CREATION_DATE/><ORIGINATOR/></header><body><segment><metadata><OBJECT_NAME>IRIDIUM 5</OBJECT_NAME><OBJECT_ID>1997-020D</OBJECT_ID><CENTER_NAME>EARTH</CENTER_NAME><REF_FRAME>TEME</REF_FRAME><TIME_SYSTEM>UTC</TIME_SYSTEM><MEAN_ELEMENT_THEORY>SGP4</MEAN_ELEMENT_THEORY></metadata><data><meanElements><EPOCH>2025-05-12T21:10:55.992000</EPOCH><MEAN_MOTION>14.94110012</MEAN_MOTION><ECCENTRICITY>.0106559</ECCENTRICITY><INCLINATION>86.3864</INCLINATION><RA_OF_ASC_NODE>100.0106</RA_OF_ASC_NODE><ARG_OF_PERICENTER>264.9729</ARG_OF_PERICENTER><MEAN_ANOMALY>93.9330</MEAN_ANOMALY></meanElements><tleParameters><EPHEMERIS_TYPE>0</EPHEMERIS_TYPE><CLASSIFICATION_TYPE>U</CLASSIFICATION_TYPE><NORAD_CAT_ID>24795</NORAD_CAT_ID><ELEMENT_SET_NO>999</ELEMENT_SET_NO><REV_AT_EPOCH>48019</REV_AT_EPOCH><BSTAR>.30849E-3</BSTAR><MEAN_MOTION_DOT>.372E-4</MEAN_MOTION_DOT><MEAN_MOTION_DDOT>0</MEAN_MOTION_DDOT></tleParameters></data></segment></body></omm>
<omm id="CCSDS_OMM_VERS" version="2.0">
<header><CREATION_DATE/><ORIGINATOR/></header><body><segment><metadata><OBJECT_NAME>IRIDIUM 4</OBJECT_NAME><OBJECT_ID>1997-020E</OBJECT_ID><CENTER_NAME>EARTH</CENTER_NAME><REF_FRAME>TEME</REF_FRAME><TIME_SYSTEM>UTC</TIME_SYSTEM><MEAN_ELEMENT_THEORY>SGP4</MEAN_ELEMENT_THEORY></metadata><data><meanElements><EPOCH>2025-05-13T04:49:01.801056</EPOCH><MEAN_MOTION>14.36821154</MEAN_MOTION><ECCENTRICITY>.0002186</ECCENTRICITY><INCLINATION>86.4004</INCLINATION><RA_OF_ASC_NODE>188.4613</RA_OF_ASC_NODE><ARG_OF_PERICENTER>92.8191</ARG_OF_PERICENTER><MEAN_ANOMALY>267.3257</MEAN_ANOMALY></meanElements><tleParameters><EPHEMERIS_TYPE>0</EPHEMERIS_TYPE><CLASSIFICATION_TYPE>U</CLASSIFICATION_TYPE><NORAD_CAT_ID>24796</NORAD_CAT_ID><ELEMENT_SET_NO>999</ELEMENT_SET_NO><REV_AT_EPOCH>46747</REV_AT_EPOCH><BSTAR>.11379E-3</BSTAR><MEAN_MOTION_DOT>.356E-5</MEAN_MOTION_DOT><MEAN_MOTION_DDOT>0</MEAN_MOTION_DDOT></tleParameters></data></segment></body></omm>
<omm id="CCSDS_OMM_VERS" version="2.0">
<header><CREATION_DATE/><ORIGINATOR/></header><body><segment><metadata><OBJECT_NAME>IRIDIUM 914</OBJECT_NAME><OBJECT_ID>1997-030A</OBJECT_ID><CENTER_NAME>EARTH</CENTER_NAME><REF_FRAME>TEME</REF_FRAME><TIME_SYSTEM>UTC</TIME_SYSTEM><MEAN_ELEMENT_THEORY>SGP4</MEAN_ELEMENT_THEORY></metadata><data><meanElements><EPOCH>2025-05-12T21:14:05.036928</EPOCH><MEAN_MOTION>14.40844740</MEAN_MOTION><ECCENTRICITY>.0002125</ECCENTRICITY><INCLINATION>86.3985</INCLINATION><RA_OF_ASC_NODE>197.2942</RA_OF_ASC_NODE><ARG_OF_PERICENTER>51.6482</ARG_OF_PERICENTER><MEAN_ANOMALY>308.4908</MEAN_ANOMALY></meanElements><tleParameters><EPHEMERIS_TYPE>0</EPHEMERIS_TYPE><CLASSIFICATION_TYPE>U</CLASSIFICATION_TYPE><NORAD_CAT_ID>24836</NORAD_CAT_ID><ELEMENT_SET_NO>999</ELEMENT_SET_NO><REV_AT_EPOCH>46414</REV_AT_EPOCH><BSTAR>.12746E-3</BSTAR><MEAN_MOTION_DOT>.428E-5</MEAN_MOTION_DOT><MEAN_MOTION_DDOT>0</MEAN_MOTION_DDOT></tleParameters></data></segment></body></omm>
<omm id="CCSDS_OMM_VERS" version="2.0">
<header><CREATION_DATE/><ORIGINATOR/></header><body><segment><metadata><OBJECT_NAME>IRIDIUM 16</OBJECT_NAME><OBJECT_ID>1997-030F</OBJECT_ID><CENTER_NAME>EARTH</CENTER_NAME><REF_FRAME>TEME</REF_FRAME><TIME_SYSTEM>UTC</TIME_SYSTEM><MEAN_ELEMENT_THEORY>SGP4</MEAN_ELEMENT_THEORY></metadata><data><meanElements><EPOCH>2025-05-12T19:00:15.691392</EPOCH><MEAN_MOTION>14.38689257</MEAN_MOTION><ECCENTRICITY>.0003287</ECCENTRICITY><INCLINATION>86.4073</INCLINATION><RA_OF_ASC_NODE>220.1308</RA_OF_ASC_NODE><ARG_OF_PERICENTER>138.6371</ARG_OF_PERICENTER><MEAN_ANOMALY>221.5077</MEAN_ANOMALY></meanElements><tleParameters><EPHEMERIS_TYPE>0</EPHEMERIS_TYPE><CLASSIFICATION_TYPE>U</CLASSIFICATION_TYPE><NORAD_CAT_ID>24841</NORAD_CAT_ID><ELEMENT_SET_NO>999</ELEMENT_SET_NO><REV_AT_EPOCH>46191</REV_AT_EPOCH><BSTAR>.13118E-3</BSTAR><MEAN_MOTION_DOT>.422E-5</MEAN_MOTION_DOT><MEAN_MOTION_DDOT>0</MEAN_MOTION_DDOT></tleParameters></data></segment></body></omm>
<omm id="CCSDS_OMM_VERS" version="2.0">
<header><CREATION_DATE/><ORIGINATOR/></header><body><segment><metadata><OBJECT_NAME>IRIDIUM 911</OBJECT_NAME><OBJECT_ID>1997-030G</OBJECT_ID><CENTER_NAME>EARTH</CENTER_NAME><REF_FRAME>TEME</REF_FRAME><TIME_SYSTEM>UTC</TIME_SYSTEM><MEAN_ELEMENT_THEORY>SGP4</MEAN_ELEMENT_THEORY></metadata><data><meanElements><EPOCH>2025-05-12T17:24:44.226432</EPOCH><MEAN_MOTION>14.47604380</MEAN_MOTION><ECCENTRICITY>.0013175</ECCENTRICITY><INCLINATION>86.4499</INCLINATION><RA_OF_ASC_NODE>218.9660</RA_OF_ASC_NODE><ARG_OF_PERICENTER>207.4529</ARG_OF_PERICENTER><MEAN_ANOMALY>152.5979</MEAN_ANOMALY></meanElements><tleParameters><EPHEMERIS_TYPE>0</EPHEMERIS_TYPE><CLASSIFICATION_TYPE>U</CLASSIFICATION_TYPE><NORAD_CAT_ID>24842</NORAD_CAT_ID><ELEMENT_SET_NO>999</ELEMENT_SET_NO><REV_AT_EPOCH>46995</REV_AT_EPOCH><BSTAR>.1533E-3</BSTAR><MEAN_MOTION_DOT>.585E-5</MEAN_MOTION_DOT><MEAN_MOTION_DDOT>0</MEAN_MOTION_DDOT></tleParameters></data></segment></body></omm>
<omm id="CCSDS_OMM_VERS" version="2.0">
<header><CREATION_DATE/><ORIGINATOR/></header><body><segment><metadata><OBJECT_NAME>IRIDIUM 17</OBJECT_NAME><OBJECT_ID>1997-034B</OBJECT_ID><CENTER_NAME>EARTH</CENTER_NAME><REF_FRAME>TEME</REF_FRAME><TIME_SYSTEM>UTC</TIME_SYSTEM><MEAN_ELEMENT_THEORY>SGP4</MEAN_ELEMENT_THEORY></metadata><data><meanElements><EPOCH>2025-05-12T19:50:41.349408</EPOCH><MEAN_MOTION>14.37799675</MEAN_MOTION><ECCENTRICITY>.0003653</ECCENTRICITY><INCLINATION>86.3958</INCLINATION><RA_OF_ASC_NODE>249.6152</RA_OF_ASC_NODE><ARG_OF_PERICENTER>111.0098</ARG_OF_PERICENTER><MEAN_ANOMALY>249.1491</MEAN_ANOMALY></meanElements><tleParameters><EPHEMERIS_TYPE>0</EPHEMERIS_TYPE><CLASSIFICATION_TYPE>U</CLASSIFICATION_TYPE><NORAD_CAT_ID>24870</NORAD_CAT_ID><ELEMENT_SET_NO>999</ELEMENT_SET_NO><REV_AT_EPOCH>45850</REV_AT_EPOCH><BSTAR>.15642E-3</BSTAR><MEAN_MOTION_DOT>.491E-5</MEAN_MOTION_DOT><MEAN_MOTION_DDOT>0</MEAN_MOTION_DDOT></tleParameters></data></segment></body></omm>
<omm id="CCSDS_OMM_VERS" version="2.0">
<header><CREATION_DATE/><ORIGINATOR/></header><body><segment><metadata><OBJECT_NAME>IRIDIUM 920</OBJECT_NAME><OBJECT_ID>1997-034C</OBJECT_ID><CENTER_NAME>EARTH</CENTER_NAME><REF_FRAME>TEME</REF_FRAME><TIME_SYSTEM>UTC</TIME_SYSTEM><MEAN_ELEMENT_THEORY>SGP4</MEAN_ELEMENT_THEORY></metadata><data><meanElements><EPOCH>2025-05-13T05:42:54.057024</EPOCH><MEAN_MOTION>14.41506221</MEAN_MOTION><ECCENTRICITY>.0011327</ECCENTRICITY><INCLINATION>86.4004</INCLINATION><RA_OF_ASC_NODE>228.7490</RA_OF_ASC_NODE><ARG_OF_PERICENTER>186.0234</ARG_OF_PERICENTER><MEAN_ANOMALY>174.0831</MEAN_ANOMALY></meanElements><tleParameters><EPHEMERIS_TYPE>0</EPHEMERIS_TYPE><CLASSIFICATION_TYPE>U</CLASSIFICATION_TYPE><NORAD_CAT_ID>24871</NORAD_CAT_ID><ELEMENT_SET_NO>999</ELEMENT_SET_NO><REV_AT_EPOCH>46180</REV_AT_EPOCH><BSTAR>.13324E-3</BSTAR><MEAN_MOTION_DOT>.453E-5</MEAN_MOTION_DOT><MEAN_MOTION_DDOT>0</MEAN_MOTION_DDOT></tleParameters></data></segment></body></omm>

</ndm>
